{"type": "FeatureCollection", "features": [ {"type": "Feature", "properties": {"norad_id": 33825, "name": "COSMOS 2251 DEB", "group": "cosmos-2251-debris", "lat": -47.96885304855938, "lon": 7.605627229920668, "alt_km": 624.8952069385978, "timestamp": "2025-12-13T13:34:35.433295+00:00", "meta": {"OBJECT_NAME": "COSMOS 2251 DEB", "OBJECT_ID": "1993-036BS", "EPOCH": "2025-12-12T13:51:35.395200", "MEAN_MOTION": 14.69761316, "ECCENTRICITY": 0.00845318, "INCLINATION": 73.9856, "RA_OF_ASC_NODE": 28.1062, "ARG_OF_PERICENTER": 355.1735, "MEAN_ANOMALY": 128.4234, "EPHEMERIS_TYPE": 0, "CLASSIFICATION_TYPE": "U", "NORAD_CAT_ID": 33825, "ELEMENT_SET_NO": 999, "REV_AT_EPOCH": 88877, "BSTAR": 0.00106274, "MEAN_MOTION_DOT": 6.669e-05, "MEAN_MOTION_DDOT": 0}, "tle": {"line1": "1 33825U 93036BS  25346.57749300  .00006669  00000+0  10627-2 0  9991", "line2": "2 33825  73.9856  28.1062 0084531 355.1735 128.4234 14.69761316888776"}}, "geometry": {"type": "Point", "coordinates": [7.605627229920668, -47.96885304855938]}}, {"type": "Feature", "properties": {"norad_id": 33826, "name": "COSMOS 2251 DEB", "group": "cosmos-2251-debris", "lat": 31.37930643712399, "lon": -141.71143107341717, "alt_km": 683.417928399288, "timestamp": "2025-12-13T13:34:35.433305+00:00", "meta": {"OBJECT_NAME": "COSMOS 2251 DEB", "OBJECT_ID": "1993-036BT", "EPOCH": "2025-12-12T14:26:27.066624", "MEAN_MOTION": 14.51716879, "ECCENTRICITY": 0.00831459, "INCLINATION": 74.0651, "RA_OF_ASC_NODE": 50.1352, "ARG_OF_PERICENTER": 94.5445, "MEAN_ANOMALY": 55.8763, "EPHEMERIS_TYPE": 0, "CLASSIFICATION_TYPE": "U", "NORAD_CAT_ID": 33826, "ELEMENT_SET_NO": 999, "REV_AT_EPOCH": 87767, "BSTAR": 0.0014956453, "MEAN_MOTION_DOT": 6.26e-05, "MEAN_MOTION_DDOT": 0}, "tle": {"line1": "1 33826U 93036BT  25346.60170216  .00006260  00000+0  14956-2 0  9996", "line2": "2 33826  74.0651  50.1352 0083145  94.5445  55.8763 14.51716879877673"}}, "geometry": {"type": "Point", "coordinates": [-141.71143107341717, 31.37930643712399]}}, {"type": "Feature", "properties": {"norad_id": 33828, "name": "COSMOS 2251 DEB", "group": "cosmos-2251-debris", "lat": 20.359933879558177, "lon": -117.35151978673397, "alt_km": 737.315954917306, "timestamp": "2025-12-13T13:34:35.433316+00:00", "meta": {"OBJECT_NAME": "COSMOS 2251 DEB", "OBJECT_ID": "1993-036BV", "EPOCH": "2025-12-12T17:48:39.294144", "MEAN_MOTION": 14.44333718, "ECCENTRICITY": 0.00294499, "INCLINATION": 74.0467, "RA_OF_ASC_NODE": 238.0857, "ARG_OF_PERICENTER": 311.0353, "MEAN_ANOMALY": 109.4765, "EPHEMERIS_TYPE": 0, "CLASSIFICATION_TYPE": "U", "NORAD_CAT_ID": 33828, "ELEMENT_SET_NO": 999, "REV_AT_EPOCH": 88313, "BSTAR": 0.00074739526, "MEAN_MOTION_DOT": 2.56e-05, "MEAN_MOTION_DDOT": 0}, "tle": {"line1": "1 33828U 93036BV  25346.74212146  .00002560  00000+0  74740-3 0  9999", "line2": "2 33828  74.0467 238.0857 0029449 311.0353 109.4765 14.44333718883134"}}, "geometry": {"type": "Point", "coordinates": [-117.35151978673397, 20.359933879558177]}}, {"type": "Feature", "properties": {"norad_id": 33830, "name": "COSMOS 2251 DEB", "group": "cosmos-2251-debris", "lat": -7.085247360815759, "lon": -133.29231358528384, "alt_km": 612.9464435716873, "timestamp": "2025-12-13T13:34:35.433325+00:00", "meta": {"OBJECT_NAME": "COSMOS 2251 DEB", "OBJECT_ID": "1993-036BX", "EPOCH": "2025-12-12T23:04:15.464640", "MEAN_MOTION": 14.76904598, "ECCENTRICITY": 0.00423795, "INCLINATION": 74.0323, "RA_OF_ASC_NODE": 229.9317, "ARG_OF_PERICENTER": 349.9777, "MEAN_ANOMALY": 30.5669, "EPHEMERIS_TYPE": 0, "CLASSIFICATION_TYPE": "U", "NORAD_CAT_ID": 33830, "ELEMENT_SET_NO": 999, "REV_AT_EPOCH": 89475, "BSTAR": 0.0013217009, "MEAN_MOTION_DOT": 9.413e-05, "MEAN_MOTION_DDOT": 0}, "tle": {"line1": "1 33830U 93036BX  25346.96129010  .00009413  00000+0  13217-2 0  9998", "line2": "2 33830  74.0323 229.9317 0042379 349.9777  30.5669 14.76904598894757"}}, "geometry": {"type": "Point", "coordinates": [-133.29231358528384, -7.085247360815759]}}, {"type": "Feature", "properties": {"norad_id": 33832, "name": "COSMOS 2251 DEB", "group": "cosmos-2251-debris", "lat": -5.0320188459963, "lon": -153.04360517419462, "alt_km": 701.854669848608, "timestamp": "2025-12-13T13:34:35.433335+00:00", "meta": {"OBJECT_NAME": "COSMOS 2251 DEB", "OBJECT_ID": "1993-036BZ", "EPOCH": "2025-12-13T01:00:32.813280", "MEAN_MOTION": 14.60654035, "ECCENTRICITY": 0.00248212, "INCLINATION": 74.0541, "RA_OF_ASC_NODE": 209.3977, "ARG_OF_PERICENTER": 240.4066, "MEAN_ANOMALY": 241.8525, "EPHEMERIS_TYPE": 0, "CLASSIFICATION_TYPE": "U", "NORAD_CAT_ID": 33832, "ELEMENT_SET_NO": 999, "REV_AT_EPOCH": 88429, "BSTAR": 0.0018971978, "MEAN_MOTION_DOT": 9.258e-05, "MEAN_MOTION_DDOT": 0}, "tle": {"line1": "1 33832U 93036BZ  25347.04204645  .00009258  00000+0  18972-2 0  9998", "line2": "2 33832  74.0541 209.3977 0024821 240.4066 241.8525 14.60654035884290"}}, "geometry": {"type": "Point", "coordinates": [-153.04360517419462, -5.0320188459963]}}, {"type": "Feature", "properties": {"norad_id": 33835, "name": "COSMOS 2251 DEB", "group": "cosmos-2251-debris", "lat": -14.593668060271485, "lon": -76.20182230117261, "alt_km": 661.5014467572437, "timestamp": "2025-12-13T13:34:35.433344+00:00", "meta": {"OBJECT_NAME": "COSMOS 2251 DEB", "OBJECT_ID": "1993-036CC", "EPOCH": "2025-12-12T17:31:52.732416", "MEAN_MOTION": 14.62252195, "ECCENTRICITY": 0.00546841, "INCLINATION": 74.0568, "RA_OF_ASC_NODE": 101.1267, "ARG_OF_PERICENTER": 154.6531, "MEAN_ANOMALY": 325.127, "EPHEMERIS_TYPE": 0, "CLASSIFICATION_TYPE": "U", "NORAD_CAT_ID": 33835, "ELEMENT_SET_NO": 999, "REV_AT_EPOCH": 88789, "BSTAR": 0.0016304874, "MEAN_MOTION_DOT": 8.379e-05, "MEAN_MOTION_DDOT": 0}, "tle": {"line1": "1 33835U 93036CC  25346.73047144  .00008379  00000+0  16305-2 0  9996", "line2": "2 33835  74.0568 101.1267 0054684 154.6531 325.1270 14.62252195887891"}}, "geometry": {"type": "Point", "coordinates": [-76.20182230117261, -14.593668060271485]}}, {"type": "Feature", "properties": {"norad_id": 33836, "name": "COSMOS 2251 DEB", "group": "cosmos-2251-debris", "lat": -73.98660011082954, "lon": 167.602158649175, "alt_km": 652.2441272271699, "timestamp": "2025-12-13T13:34:35.433353+00:00", "meta": {"OBJECT_NAME": "COSMOS 2251 DEB", "OBJECT_ID": "1993-036CD", "EPOCH": "2025-12-12T18:48:33.739776", "MEAN_MOTION": 14.79623029, "ECCENTRICITY": 0.00225741, "INCLINATION": 73.997, "RA_OF_ASC_NODE": 258.8638, "ARG_OF_PERICENTER": 112.0113, "MEAN_ANOMALY": 314.4402, "EPHEMERIS_TYPE": 0, "CLASSIFICATION_TYPE": "U", "NORAD_CAT_ID": 33836, "ELEMENT_SET_NO": 999, "REV_AT_EPOCH": 64089, "BSTAR": 0.0019144744, "MEAN_MOTION_DOT": 0.00014414, "MEAN_MOTION_DDOT": 0}, "tle": {"line1": "1 33836U 93036CD  25346.78372384  .00014414  00000+0  19145-2 0  9991", "line2": "2 33836  73.9970 258.8638 0022574 112.0113 314.4402 14.79623029640897"}}, "geometry": {"type": "Point", "coordinates": [167.602158649175, -73.98660011082954]}}, {"type": "Feature", "properties": {"norad_id": 33837, "name": "COSMOS 2251 DEB", "group": "cosmos-2251-debris", "lat": 16.561203383565356, "lon": -130.84680421547063, "alt_km": 733.4390811180483, "timestamp": "2025-12-13T13:34:35.433363+00:00", "meta": {"OBJECT_NAME": "COSMOS 2251 DEB", "OBJECT_ID": "1993-036CE", "EPOCH": "2025-12-12T21:55:49.105920", "MEAN_MOTION": 14.50702445, "ECCENTRICITY": 0.00358614, "INCLINATION": 74.0131, "RA_OF_ASC_NODE": 55.2706, "ARG_OF_PERICENTER": 276.9614, "MEAN_ANOMALY": 82.7468, "EPHEMERIS_TYPE": 0, "CLASSIFICATION_TYPE": "U", "NORAD_CAT_ID": 33837, "ELEMENT_SET_NO": 999, "REV_AT_EPOCH": 88798, "BSTAR": 0.00040964028, "MEAN_MOTION_DOT": 1.595e-05, "MEAN_MOTION_DDOT": 0}, "tle": {"line1": "1 33837U 93036CE  25346.91376280  .00001595  00000+0  40964-3 0  9996", "line2": "2 33837  74.0131  55.2706 0035861 276.9614  82.7468 14.50702445887982"}}, "geometry": {"type": "Point", "coordinates": [-130.84680421547063, 16.561203383565356]}}, {"type": "Feature", "properties": {"norad_id": 33838, "name": "COSMOS 2251 DEB", "group": "cosmos-2251-debris", "lat": 27.544663466264666, "lon": 156.85310388746984, "alt_km": 738.881692862974, "timestamp": "2025-12-13T13:34:35.433372+00:00", "meta": {"OBJECT_NAME": "COSMOS 2251 DEB", "OBJECT_ID": "1993-036CF", "EPOCH": "2025-12-12T21:24:34.265664", "MEAN_MOTION": 14.48364526, "ECCENTRICITY": 0.00274577, "INCLINATION": 74.0364, "RA_OF_ASC_NODE": 149.5282, "ARG_OF_PERICENTER": 271.3803, "MEAN_ANOMALY": 206.2624, "EPHEMERIS_TYPE": 0, "CLASSIFICATION_TYPE": "U", "NORAD_CAT_ID": 33838, "ELEMENT_SET_NO": 999, "REV_AT_EPOCH": 88571, "BSTAR": 0.00067779602, "MEAN_MOTION_DOT": 2.521e-05, "MEAN_MOTION_DDOT": 0}, "tle": {"line1": "1 33838U 93036CF  25346.89206326  .00002521  00000+0  67780-3 0  9992", "line2": "2 33838  74.0364 149.5282 0027457 271.3803 206.2624 14.48364526885715"}}, "geometry": {"type": "Point", "coordinates": [156.85310388746984, 27.544663466264666]}}, {"type": "Feature", "properties": {"norad_id": 33839, "name": "COSMOS 2251 DEB", "group": "cosmos-2251-debris", "lat": 3.213073950181793, "lon": -154.1860672738025, "alt_km": 639.6639351942958, "timestamp": "2025-12-13T13:34:35.433381+00:00", "meta": {"OBJECT_NAME": "COSMOS 2251 DEB", "OBJECT_ID": "1993-036CG", "EPOCH": "2025-12-13T01:11:09.155328", "MEAN_MOTION": 14.6442234, "ECCENTRICITY": 0.00851149, "INCLINATION": 74.039, "RA_OF_ASC_NODE": 205.885, "ARG_OF_PERICENTER": 317.8915, "MEAN_ANOMALY": 204.2144, "EPHEMERIS_TYPE": 0, "CLASSIFICATION_TYPE": "U", "NORAD_CAT_ID": 33839, "ELEMENT_SET_NO": 999, "REV_AT_EPOCH": 89584, "BSTAR": 0.00036997669, "MEAN_MOTION_DOT": 2.03e-05, "MEAN_MOTION_DDOT": 0}, "tle": {"line1": "1 33839U 93036CG  25347.04941152  .00002030  00000+0  36998-3 0  9996", "line2": "2 33839  74.0390 205.8850 0085114 317.8915 204.2144 14.64422340895843"}}, "geometry": {"type": "Point", "coordinates": [-154.1860672738025, 3.213073950181793]}}]}